{
  "type": "FeatureCollection",
  "features": [
    {
      "type": "Feature",
      "properties": {},
      "geometry": {
        "type": "LineString",
        "coordinates": [
          [
            49.814945,
            40.429665
          ],
          [
            49.815114,
            40.42979
          ],
          [
            49.814826,
            40.430029
          ],
          [
            49.814773,
            40.430032
          ],
          [
            49.814728,
            40.430011
          ],
          [
            49.814442,
            40.430256
          ],
          [
            49.814391,
            40.430263
          ],
          [
            49.813442,
            40.429539
          ],
          [
            49.812397,
            40.428754
          ],
          [
            49.812227,
            40.428876
          ],
          [
            49.812054,
            40.42902
          ],
          [
            49.81172,
            40.429306
          ],
          [
            49.811153,
            40.429763
          ],
          [
            49.811095,
            40.42981
          ],
          [
            49.810887,
            40.429981
          ],
          [
            49.810768,
            40.43007
          ],
          [
            49.810203,
            40.430495
          ],
          [
            49.810036,
            40.43058
          ],
          [
            49.809932,
            40.430455
          ],
          [
            49.809614,
            40.430156
          ],
          [
            49.809178,
            40.429793
          ],
          [
            49.80904,
            40.429678
          ],
          [
            49.808616,
            40.429292
          ],
          [
            49.807616,
            40.428368
          ],
          [
            49.807516,
            40.428268
          ],
          [
            49.807452,
            40.428188
          ],
          [
            49.807384,
            40.428105
          ],
          [
            49.806446,
            40.426951
          ],
          [
            49.806031,
            40.426465
          ],
          [
            49.805865,
            40.426265
          ],
          [
            49.805824,
            40.426219
          ],
          [
            49.805199,
            40.425483
          ],
          [
            49.804916,
            40.425125
          ],
          [
            49.804792,
            40.424918
          ],
          [
            49.804616,
            40.424492
          ],
          [
            49.804594,
            40.424416
          ],
          [
            49.804581,
            40.424341
          ],
          [
            49.804579,
            40.42427
          ],
          [
            49.804589,
            40.424216
          ],
          [
            49.80461,
            40.42416
          ],
          [
            49.804677,
            40.424062
          ],
          [
            49.804974,
            40.423808
          ],
          [
            49.805097,
            40.423702
          ],
          [
            49.805577,
            40.423286
          ],
          [
            49.806004,
            40.422922
          ],
          [
            49.806237,
            40.422725
          ],
          [
            49.806274,
            40.422661
          ],
          [
            49.806299,
            40.422589
          ],
          [
            49.806269,
            40.422527
          ],
          [
            49.806217,
            40.422471
          ],
          [
            49.806085,
            40.422375
          ],
          [
            49.804371,
            40.42121
          ],
          [
            49.804184,
            40.421079
          ],
          [
            49.804131,
            40.421042
          ],
          [
            49.803777,
            40.420782
          ],
          [
            49.803672,
            40.420719
          ],
          [
            49.803568,
            40.420668
          ],
          [
            49.803464,
            40.420625
          ],
          [
            49.803023,
            40.420466
          ],
          [
            49.802908,
            40.420421
          ],
          [
            49.80278,
            40.420358
          ],
          [
            49.802735,
            40.420327
          ],
          [
            49.802673,
            40.420269
          ],
          [
            49.80263,
            40.420209
          ],
          [
            49.80254,
            40.420071
          ],
          [
            49.802254,
            40.41979
          ],
          [
            49.802207,
            40.419765
          ],
          [
            49.802165,
            40.419756
          ],
          [
            49.802122,
            40.419756
          ],
          [
            49.802028,
            40.419787
          ],
          [
            49.800617,
            40.420735
          ],
          [
            49.800478,
            40.420829
          ],
          [
            49.800318,
            40.420929
          ],
          [
            49.800005,
            40.421129
          ],
          [
            49.799973,
            40.421143
          ],
          [
            49.799943,
            40.42115
          ],
          [
            49.799916,
            40.421154
          ],
          [
            49.79988,
            40.421155
          ],
          [
            49.799845,
            40.421152
          ],
          [
            49.799806,
            40.421143
          ],
          [
            49.79977,
            40.421128
          ],
          [
            49.799732,
            40.421106
          ],
          [
            49.799695,
            40.421075
          ],
          [
            49.799279,
            40.420721
          ],
          [
            49.799208,
            40.420652
          ],
          [
            49.79904,
            40.420453
          ],
          [
            49.798941,
            40.420399
          ],
          [
            49.798864,
            40.420361
          ],
          [
            49.798762,
            40.420313
          ],
          [
            49.798668,
            40.420273
          ],
          [
            49.79856,
            40.420232
          ],
          [
            49.797906,
            40.419993
          ],
          [
            49.797802,
            40.419983
          ],
          [
            49.79763,
            40.419964
          ],
          [
            49.797528,
            40.419964
          ],
          [
            49.797439,
            40.419974
          ],
          [
            49.797367,
            40.419997
          ],
          [
            49.79731,
            40.420028
          ],
          [
            49.797251,
            40.420082
          ],
          [
            49.797148,
            40.420214
          ],
          [
            49.797103,
            40.420291
          ],
          [
            49.797087,
            40.42034
          ],
          [
            49.797085,
            40.420391
          ],
          [
            49.797104,
            40.420444
          ],
          [
            49.797136,
            40.420481
          ],
          [
            49.797173,
            40.420513
          ],
          [
            49.797236,
            40.420553
          ],
          [
            49.797288,
            40.420573
          ],
          [
            49.797329,
            40.420584
          ],
          [
            49.79739,
            40.420591
          ],
          [
            49.797463,
            40.420587
          ],
          [
            49.797503,
            40.42058
          ],
          [
            49.797572,
            40.420564
          ],
          [
            49.797627,
            40.420547
          ],
          [
            49.797685,
            40.420519
          ],
          [
            49.797761,
            40.420461
          ],
          [
            49.797824,
            40.420399
          ],
          [
            49.79799,
            40.420199
          ],
          [
            49.79825,
            40.419739
          ],
          [
            49.798783,
            40.4188
          ],
          [
            49.800095,
            40.416556
          ],
          [
            49.800516,
            40.415884
          ],
          [
            49.8026,
            40.412427
          ],
          [
            49.803449,
            40.411038
          ],
          [
            49.804258,
            40.409719
          ],
          [
            49.805697,
            40.407306
          ],
          [
            49.80694,
            40.405245
          ],
          [
            49.807596,
            40.404202
          ],
          [
            49.808363,
            40.402972
          ],
          [
            49.808812,
            40.402327
          ],
          [
            49.809045,
            40.40198
          ],
          [
            49.80937,
            40.401569
          ],
          [
            49.809658,
            40.401228
          ],
          [
            49.809887,
            40.40098
          ],
          [
            49.810146,
            40.400721
          ],
          [
            49.810205,
            40.400666
          ],
          [
            49.810631,
            40.400271
          ],
          [
            49.811145,
            40.399791
          ],
          [
            49.811172,
            40.399767
          ],
          [
            49.811882,
            40.399146
          ],
          [
            49.812416,
            40.398643
          ],
          [
            49.813288,
            40.397846
          ],
          [
            49.813845,
            40.397337
          ],
          [
            49.813963,
            40.397234
          ],
          [
            49.814074,
            40.397146
          ],
          [
            49.81426,
            40.396998
          ],
          [
            49.814295,
            40.396972
          ],
          [
            49.814364,
            40.396922
          ],
          [
            49.814465,
            40.396858
          ],
          [
            49.814845,
            40.396637
          ],
          [
            49.815055,
            40.396528
          ],
          [
            49.81636,
            40.395855
          ],
          [
            49.816747,
            40.395648
          ],
          [
            49.816947,
            40.39555
          ],
          [
            49.817015,
            40.395516
          ],
          [
            49.817059,
            40.395495
          ],
          [
            49.817249,
            40.395404
          ],
          [
            49.817313,
            40.395372
          ],
          [
            49.817543,
            40.395257
          ],
          [
            49.818001,
            40.395032
          ],
          [
            49.81858,
            40.394751
          ],
          [
            49.819519,
            40.394302
          ],
          [
            49.819592,
            40.394262
          ],
          [
            49.819672,
            40.39421
          ],
          [
            49.819952,
            40.393984
          ],
          [
            49.820008,
            40.393939
          ],
          [
            49.820053,
            40.393902
          ],
          [
            49.820252,
            40.39374
          ],
          [
            49.820303,
            40.393698
          ],
          [
            49.820327,
            40.393678
          ],
          [
            49.820438,
            40.393584
          ],
          [
            49.821599,
            40.392592
          ],
          [
            49.822115,
            40.392118
          ],
          [
            49.822324,
            40.391889
          ],
          [
            49.822376,
            40.391824
          ],
          [
            49.822446,
            40.391736
          ],
          [
            49.822523,
            40.391666
          ],
          [
            49.822617,
            40.39161
          ],
          [
            49.822779,
            40.39154
          ],
          [
            49.823098,
            40.391396
          ],
          [
            49.823944,
            40.390852
          ],
          [
            49.82477,
            40.390087
          ],
          [
            49.825485,
            40.389441
          ],
          [
            49.825532,
            40.389391
          ],
          [
            49.825608,
            40.389317
          ],
          [
            49.826335,
            40.388628
          ],
          [
            49.826844,
            40.388118
          ],
          [
            49.826945,
            40.387998
          ],
          [
            49.827024,
            40.38789
          ],
          [
            49.827094,
            40.387787
          ],
          [
            49.827114,
            40.387758
          ],
          [
            49.827376,
            40.387345
          ],
          [
            49.827433,
            40.387257
          ],
          [
            49.827712,
            40.386738
          ],
          [
            49.827853,
            40.386517
          ],
          [
            49.827958,
            40.386347
          ],
          [
            49.828051,
            40.386184
          ],
          [
            49.828108,
            40.386076
          ],
          [
            49.828194,
            40.385908
          ],
          [
            49.828261,
            40.385761
          ],
          [
            49.828318,
            40.385619
          ],
          [
            49.828523,
            40.385075
          ],
          [
            49.828567,
            40.384965
          ],
          [
            49.828594,
            40.384898
          ],
          [
            49.828718,
            40.384588
          ],
          [
            49.828942,
            40.38401
          ],
          [
            49.828946,
            40.384
          ],
          [
            49.82896,
            40.383966
          ],
          [
            49.828984,
            40.383906
          ],
          [
            49.829022,
            40.383809
          ],
          [
            49.829028,
            40.383794
          ],
          [
            49.829333,
            40.383
          ],
          [
            49.829415,
            40.38278
          ],
          [
            49.829571,
            40.382363
          ],
          [
            49.829814,
            40.381693
          ],
          [
            49.830055,
            40.381011
          ],
          [
            49.830393,
            40.380052
          ],
          [
            49.830419,
            40.37998
          ],
          [
            49.830759,
            40.379032
          ],
          [
            49.830794,
            40.378937
          ],
          [
            49.830812,
            40.378897
          ],
          [
            49.830831,
            40.378867
          ],
          [
            49.830849,
            40.37884
          ],
          [
            49.830924,
            40.378754
          ],
          [
            49.830996,
            40.378689
          ],
          [
            49.831237,
            40.378501
          ],
          [
            49.83132,
            40.378413
          ],
          [
            49.831366,
            40.378337
          ],
          [
            49.831409,
            40.378238
          ],
          [
            49.831515,
            40.377937
          ],
          [
            49.831541,
            40.377867
          ],
          [
            49.831557,
            40.377822
          ],
          [
            49.831578,
            40.377763
          ],
          [
            49.831928,
            40.376784
          ],
          [
            49.832136,
            40.376197
          ],
          [
            49.832226,
            40.375948
          ],
          [
            49.832233,
            40.375916
          ],
          [
            49.83223,
            40.37589
          ],
          [
            49.832224,
            40.375868
          ],
          [
            49.832213,
            40.375851
          ],
          [
            49.832195,
            40.37583
          ],
          [
            49.832167,
            40.375801
          ],
          [
            49.832136,
            40.375779
          ],
          [
            49.832104,
            40.375758
          ],
          [
            49.832064,
            40.375738
          ],
          [
            49.832001,
            40.375718
          ],
          [
            49.831927,
            40.375702
          ],
          [
            49.831671,
            40.375664
          ],
          [
            49.831501,
            40.375647
          ],
          [
            49.831257,
            40.375616
          ],
          [
            49.830852,
            40.375556
          ],
          [
            49.830303,
            40.375466
          ],
          [
            49.830342,
            40.375385
          ],
          [
            49.830372,
            40.3753
          ],
          [
            49.830534,
            40.374895
          ],
          [
            49.830558,
            40.374831
          ],
          [
            49.830596,
            40.374745
          ],
          [
            49.831023,
            40.374848
          ],
          [
            49.831429,
            40.374943
          ],
          [
            49.831558,
            40.374971
          ],
          [
            49.831657,
            40.374988
          ],
          [
            49.831758,
            40.375001
          ],
          [
            49.831938,
            40.375019
          ],
          [
            49.832178,
            40.375039
          ],
          [
            49.833047,
            40.37511
          ],
          [
            49.833354,
            40.37514
          ],
          [
            49.833431,
            40.375154
          ],
          [
            49.833499,
            40.37517
          ],
          [
            49.833656,
            40.375208
          ],
          [
            49.833976,
            40.375294
          ],
          [
            49.839507,
            40.376786
          ],
          [
            49.839979,
            40.376923
          ],
          [
            49.840558,
            40.377071
          ],
          [
            49.840627,
            40.377088
          ],
          [
            49.840793,
            40.377127
          ],
          [
            49.840795,
            40.377062
          ],
          [
            49.840797,
            40.37703
          ],
          [
            49.840801,
            40.377003
          ],
          [
            49.840807,
            40.37698
          ],
          [
            49.840825,
            40.376929
          ],
          [
            49.840888,
            40.376771
          ],
          [
            49.840908,
            40.376723
          ],
          [
            49.840926,
            40.376679
          ],
          [
            49.840938,
            40.376648
          ],
          [
            49.84095,
            40.376616
          ],
          [
            49.841141,
            40.376106
          ],
          [
            49.841297,
            40.375682
          ],
          [
            49.841306,
            40.375654
          ],
          [
            49.841311,
            40.375633
          ],
          [
            49.841315,
            40.375591
          ],
          [
            49.841317,
            40.375536
          ],
          [
            49.84131,
            40.375464
          ],
          [
            49.841293,
            40.375406
          ],
          [
            49.841267,
            40.37534
          ],
          [
            49.841257,
            40.375296
          ],
          [
            49.841257,
            40.375259
          ],
          [
            49.841268,
            40.375211
          ],
          [
            49.841356,
            40.374983
          ],
          [
            49.841492,
            40.374646
          ],
          [
            49.841516,
            40.374585
          ],
          [
            49.84153,
            40.374555
          ],
          [
            49.841774,
            40.374
          ],
          [
            49.841831,
            40.373875
          ],
          [
            49.842382,
            40.372673
          ],
          [
            49.842417,
            40.372592
          ],
          [
            49.842465,
            40.372478
          ],
          [
            49.842758,
            40.371761
          ],
          [
            49.842774,
            40.371721
          ],
          [
            49.842814,
            40.371629
          ],
          [
            49.842839,
            40.37157
          ],
          [
            49.84319,
            40.370639
          ],
          [
            49.8432,
            40.37061
          ],
          [
            49.843251,
            40.370489
          ],
          [
            49.842211,
            40.370009
          ],
          [
            49.842116,
            40.369962
          ],
          [
            49.841977,
            40.369893
          ],
          [
            49.841873,
            40.369825
          ],
          [
            49.841794,
            40.369766
          ],
          [
            49.841746,
            40.369717
          ],
          [
            49.841723,
            40.369681
          ],
          [
            49.841712,
            40.369643
          ],
          [
            49.841709,
            40.369613
          ],
          [
            49.841716,
            40.36957
          ],
          [
            49.841726,
            40.369542
          ],
          [
            49.841843,
            40.369249
          ],
          [
            49.841846,
            40.369213
          ],
          [
            49.841835,
            40.369169
          ],
          [
            49.841818,
            40.369135
          ],
          [
            49.841794,
            40.369104
          ],
          [
            49.84176,
            40.369078
          ],
          [
            49.841149,
            40.368725
          ],
          [
            49.840047,
            40.368056
          ],
          [
            49.838989,
            40.367454
          ],
          [
            49.838807,
            40.367349
          ],
          [
            49.838555,
            40.367203
          ],
          [
            49.83849,
            40.367163
          ],
          [
            49.838427,
            40.367118
          ],
          [
            49.838383,
            40.367084
          ],
          [
            49.838346,
            40.367049
          ],
          [
            49.83832,
            40.367019
          ],
          [
            49.838304,
            40.366997
          ],
          [
            49.838294,
            40.366981
          ],
          [
            49.838279,
            40.366954
          ],
          [
            49.838256,
            40.366903
          ],
          [
            49.83824,
            40.366866
          ],
          [
            49.838225,
            40.366816
          ],
          [
            49.838191,
            40.366667
          ],
          [
            49.838082,
            40.366147
          ],
          [
            49.838,
            40.365763
          ],
          [
            49.837969,
            40.365693
          ],
          [
            49.837929,
            40.36564
          ],
          [
            49.83785,
            40.365575
          ],
          [
            49.837708,
            40.365473
          ],
          [
            49.837263,
            40.365163
          ],
          [
            49.836381,
            40.364547
          ],
          [
            49.835944,
            40.364241
          ],
          [
            49.835881,
            40.36429
          ],
          [
            49.835707,
            40.364418
          ],
          [
            49.835508,
            40.364561
          ],
          [
            49.835458,
            40.364587
          ],
          [
            49.835427,
            40.364596
          ],
          [
            49.835378,
            40.364602
          ],
          [
            49.835295,
            40.364604
          ],
          [
            49.835262,
            40.364614
          ],
          [
            49.835236,
            40.364626
          ],
          [
            49.835204,
            40.364643
          ],
          [
            49.835108,
            40.364716
          ],
          [
            49.835139,
            40.364743
          ],
          [
            49.835217,
            40.364805
          ],
          [
            49.835291,
            40.364862
          ],
          [
            49.835383,
            40.364933
          ],
          [
            49.835465,
            40.365004
          ],
          [
            49.835532,
            40.36506
          ],
          [
            49.835598,
            40.365114
          ],
          [
            49.835627,
            40.365177
          ],
          [
            49.835332,
            40.36542
          ],
          [
            49.835106,
            40.365604
          ],
          [
            49.835107,
            40.365625
          ],
          [
            49.835122,
            40.365642
          ],
          [
            49.835162,
            40.365666
          ],
          [
            49.8353,
            40.365738
          ],
          [
            49.835382,
            40.365785
          ],
          [
            49.835535,
            40.3659
          ],
          [
            49.835366,
            40.366072
          ],
          [
            49.835326,
            40.366107
          ],
          [
            49.8352,
            40.366211
          ],
          [
            49.835176,
            40.36622
          ],
          [
            49.835152,
            40.366223
          ],
          [
            49.835119,
            40.366223
          ],
          [
            49.835089,
            40.366215
          ],
          [
            49.834778,
            40.366065
          ],
          [
            49.834745,
            40.366055
          ],
          [
            49.834704,
            40.366052
          ],
          [
            49.834567,
            40.366054
          ],
          [
            49.834467,
            40.366049
          ],
          [
            49.834245,
            40.36605
          ]
        ]
      }
    }
  ]
}