{
    "type": "FeatureCollection",
    "features": [
        {
            "type": "Feature",
            "properties": {},
            "geometry": {
                "type": "LineString",
                "coordinates": [
                    [
                        49.850383,
                        40.380805
                    ],
                    [
                        49.850704,
                        40.38106
                    ],
                    [
                        49.851189,
                        40.38146
                    ],
                    [
                        49.851462,
                        40.381679
                    ],
                    [
                        49.851696,
                        40.381868
                    ],
                    [
                        49.851973,
                        40.382087
                    ],
                    [
                        49.852275,
                        40.382335
                    ],
                    [
                        49.852505,
                        40.382521
                    ],
                    [
                        49.852764,
                        40.382729
                    ],
                    [
                        49.853041,
                        40.382954
                    ],
                    [
                        49.853351,
                        40.383187
                    ],
                    [
                        49.853562,
                        40.383331
                    ],
                    [
                        49.853795,
                        40.383504
                    ],
                    [
                        49.854014,
                        40.383662
                    ],
                    [
                        49.854236,
                        40.383806
                    ],
                    [
                        49.854481,
                        40.38397
                    ],
                    [
                        49.854732,
                        40.384139
                    ],
                    [
                        49.854937,
                        40.384284
                    ],
                    [
                        49.855151,
                        40.384437
                    ],
                    [
                        49.855355,
                        40.384586
                    ],
                    [
                        49.855587,
                        40.384755
                    ],
                    [
                        49.855768,
                        40.384887
                    ],
                    [
                        49.856043,
                        40.385111
                    ],
                    [
                        49.856285,
                        40.385312
                    ],
                    [
                        49.856578,
                        40.38555
                    ],
                    [
                        49.856842,
                        40.385765
                    ],
                    [
                        49.857116,
                        40.385987
                    ],
                    [
                        49.857401,
                        40.386215
                    ],
                    [
                        49.857658,
                        40.386424
                    ],
                    [
                        49.857963,
                        40.386671
                    ],
                    [
                        49.858237,
                        40.386892
                    ],
                    [
                        49.858442,
                        40.387065
                    ],
                    [
                        49.858679,
                        40.387257
                    ],
                    [
                        49.858887,
                        40.387436
                    ],
                    [
                        49.859062,
                        40.387605
                    ],
                    [
                        49.859323,
                        40.387845
                    ],
                    [
                        49.859558,
                        40.388033
                    ],
                    [
                        49.859737,
                        40.388181
                    ],
                    [
                        49.859874,
                        40.388305
                    ],
                    [
                        49.860022,
                        40.388444
                    ],
                    [
                        49.860188,
                        40.388598
                    ],
                    [
                        49.86035,
                        40.388751
                    ],
                    [
                        49.860536,
                        40.38892
                    ],
                    [
                        49.860766,
                        40.389127
                    ],
                    [
                        49.860944,
                        40.389286
                    ],
                    [
                        49.861195,
                        40.389448
                    ],
                    [
                        49.861465,
                        40.389616
                    ],
                    [
                        49.861629,
                        40.389717
                    ],
                    [
                        49.861908,
                        40.389843
                    ],
                    [
                        49.862178,
                        40.38995
                    ],
                    [
                        49.862427,
                        40.390045
                    ],
                    [
                        49.862689,
                        40.390148
                    ],
                    [
                        49.862925,
                        40.390235
                    ],
                    [
                        49.86298,
                        40.390261
                    ],
                    [
                        49.86321,
                        40.390331
                    ],
                    [
                        49.863415,
                        40.390399
                    ],
                    [
                        49.863594,
                        40.390458
                    ],
                    [
                        49.863805,
                        40.390522
                    ],
                    [
                        49.864021,
                        40.39058
                    ],
                    [
                        49.864228,
                        40.390637
                    ],
                    [
                        49.864501,
                        40.390692
                    ],
                    [
                        49.864773,
                        40.39074
                    ],
                    [
                        49.865215,
                        40.390801
                    ],
                    [
                        49.865272,
                        40.390813
                    ],
                    [
                        49.865667,
                        40.390833
                    ],
                    [
                        49.865927,
                        40.390839
                    ],
                    [
                        49.866222,
                        40.390841
                    ],
                    [
                        49.866593,
                        40.390822
                    ],
                    [
                        49.86698,
                        40.390796
                    ],
                    [
                        49.867338,
                        40.390746
                    ],
                    [
                        49.867731,
                        40.390678
                    ],
                    [
                        49.868108,
                        40.390607
                    ],
                    [
                        49.868488,
                        40.390532
                    ],
                    [
                        49.868921,
                        40.390438
                    ],
                    [
                        49.869202,
                        40.390372
                    ],
                    [
                        49.869487,
                        40.390308
                    ],
                    [
                        49.86978,
                        40.390246
                    ],
                    [
                        49.870125,
                        40.390178
                    ],
                    [
                        49.870466,
                        40.390123
                    ],
                    [
                        49.870709,
                        40.390079
                    ],
                    [
                        49.871099,
                        40.390041
                    ],
                    [
                        49.87153,
                        40.390014
                    ],
                    [
                        49.871969,
                        40.389993
                    ],
                    [
                        49.872422,
                        40.389987
                    ],
                    [
                        49.872831,
                        40.389983
                    ],
                    [
                        49.873257,
                        40.38999
                    ],
                    [
                        49.873616,
                        40.390017
                    ],
                    [
                        49.873993,
                        40.390028
                    ],
                    [
                        49.874441,
                        40.390007
                    ],
                    [
                        49.874791,
                        40.389959
                    ],
                    [
                        49.875222,
                        40.389884
                    ],
                    [
                        49.87546,
                        40.389846
                    ],
                    [
                        49.875703,
                        40.38981
                    ],
                    [
                        49.875922,
                        40.389776
                    ],
                    [
                        49.876097,
                        40.389749
                    ],
                    [
                        49.876343,
                        40.38971
                    ],
                    [
                        49.876626,
                        40.389671
                    ],
                    [
                        49.87699,
                        40.389621
                    ],
                    [
                        49.877246,
                        40.389583
                    ],
                    [
                        49.877537,
                        40.389542
                    ],
                    [
                        49.877727,
                        40.389522
                    ],
                    [
                        49.877937,
                        40.389493
                    ],
                    [
                        49.87813,
                        40.389476
                    ],
                    [
                        49.878354,
                        40.389455
                    ],
                    [
                        49.878537,
                        40.38944
                    ],
                    [
                        49.878761,
                        40.389435
                    ],
                    [
                        49.878947,
                        40.389437
                    ],
                    [
                        49.879171,
                        40.389452
                    ],
                    [
                        49.879403,
                        40.389474
                    ],
                    [
                        49.879652,
                        40.389515
                    ],
                    [
                        49.879889,
                        40.389561
                    ],
                    [
                        49.880064,
                        40.389592
                    ],
                    [
                        49.880166,
                        40.389615
                    ],
                    [
                        49.88035,
                        40.389664
                    ],
                    [
                        49.880531,
                        40.389715
                    ],
                    [
                        49.880728,
                        40.38977
                    ],
                    [
                        49.880903,
                        40.389821
                    ],
                    [
                        49.881102,
                        40.389894
                    ],
                    [
                        49.881299,
                        40.389971
                    ],
                    [
                        49.881527,
                        40.390068
                    ],
                    [
                        49.881637,
                        40.390116
                    ],
                    [
                        49.881827,
                        40.39022
                    ],
                    [
                        49.882015,
                        40.390317
                    ],
                    [
                        49.882219,
                        40.390433
                    ],
                    [
                        49.8824,
                        40.390544
                    ],
                    [
                        49.882534,
                        40.390641
                    ],
                    [
                        49.882609,
                        40.390696
                    ],
                    [
                        49.882685,
                        40.390751
                    ],
                    [
                        49.882741,
                        40.390788
                    ],
                    [
                        49.882817,
                        40.390861
                    ],
                    [
                        49.882898,
                        40.390935
                    ],
                    [
                        49.882978,
                        40.391003
                    ],
                    [
                        49.883066,
                        40.391086
                    ],
                    [
                        49.883151,
                        40.391162
                    ],
                    [
                        49.883238,
                        40.391242
                    ],
                    [
                        49.88333,
                        40.391349
                    ],
                    [
                        49.883415,
                        40.391439
                    ],
                    [
                        49.883502,
                        40.391537
                    ],
                    [
                        49.883572,
                        40.391615
                    ],
                    [
                        49.883659,
                        40.391745
                    ],
                    [
                        49.883742,
                        40.391864
                    ],
                    [
                        49.883789,
                        40.391938
                    ],
                    [
                        49.883843,
                        40.39202
                    ],
                    [
                        49.883883,
                        40.392078
                    ],
                    [
                        49.883935,
                        40.39218
                    ],
                    [
                        49.883986,
                        40.392277
                    ],
                    [
                        49.884038,
                        40.392381
                    ],
                    [
                        49.884089,
                        40.392475
                    ],
                    [
                        49.884157,
                        40.392609
                    ],
                    [
                        49.884217,
                        40.392724
                    ],
                    [
                        49.884273,
                        40.392828
                    ],
                    [
                        49.884317,
                        40.392915
                    ],
                    [
                        49.884386,
                        40.393049
                    ],
                    [
                        49.884455,
                        40.393183
                    ],
                    [
                        49.884527,
                        40.393332
                    ],
                    [
                        49.884595,
                        40.393469
                    ],
                    [
                        49.884669,
                        40.393609
                    ],
                    [
                        49.884731,
                        40.393735
                    ],
                    [
                        49.8848,
                        40.393868
                    ],
                    [
                        49.884889,
                        40.394039
                    ],
                    [
                        49.884938,
                        40.394128
                    ],
                    [
                        49.885,
                        40.394277
                    ],
                    [
                        49.885071,
                        40.394445
                    ],
                    [
                        49.885124,
                        40.394569
                    ],
                    [
                        49.885188,
                        40.394719
                    ],
                    [
                        49.885238,
                        40.394852
                    ],
                    [
                        49.885277,
                        40.394948
                    ],
                    [
                        49.885304,
                        40.395018
                    ],
                    [
                        49.885347,
                        40.395175
                    ],
                    [
                        49.885392,
                        40.395317
                    ],
                    [
                        49.885409,
                        40.395379
                    ],
                    [
                        49.885428,
                        40.395573
                    ],
                    [
                        49.885445,
                        40.395706
                    ],
                    [
                        49.885452,
                        40.395879
                    ],
                    [
                        49.88546,
                        40.396009
                    ],
                    [
                        49.885464,
                        40.396168
                    ],
                    [
                        49.885471,
                        40.396304
                    ],
                    [
                        49.885478,
                        40.396429
                    ],
                    [
                        49.885473,
                        40.396485
                    ],
                    [
                        49.885454,
                        40.396603
                    ],
                    [
                        49.885439,
                        40.396719
                    ],
                    [
                        49.885419,
                        40.396863
                    ],
                    [
                        49.885398,
                        40.39698
                    ],
                    [
                        49.885372,
                        40.39709
                    ],
                    [
                        49.885341,
                        40.397202
                    ],
                    [
                        49.885305,
                        40.397321
                    ],
                    [
                        49.88527,
                        40.39744
                    ],
                    [
                        49.885236,
                        40.397548
                    ],
                    [
                        49.885184,
                        40.397677
                    ],
                    [
                        49.885136,
                        40.397792
                    ],
                    [
                        49.885091,
                        40.397904
                    ],
                    [
                        49.885044,
                        40.398013
                    ],
                    [
                        49.884969,
                        40.39817
                    ],
                    [
                        49.884891,
                        40.398314
                    ],
                    [
                        49.884796,
                        40.398484
                    ],
                    [
                        49.88468,
                        40.398658
                    ],
                    [
                        49.884548,
                        40.39886
                    ],
                    [
                        49.884433,
                        40.399039
                    ],
                    [
                        49.884327,
                        40.399162
                    ],
                    [
                        49.884191,
                        40.399327
                    ],
                    [
                        49.884067,
                        40.399489
                    ],
                    [
                        49.883892,
                        40.399702
                    ],
                    [
                        49.883751,
                        40.399879
                    ],
                    [
                        49.883596,
                        40.40007
                    ],
                    [
                        49.883495,
                        40.400196
                    ],
                    [
                        49.883359,
                        40.400364
                    ],
                    [
                        49.883241,
                        40.400515
                    ],
                    [
                        49.883098,
                        40.400704
                    ],
                    [
                        49.882844,
                        40.401028
                    ],
                    [
                        49.882708,
                        40.401198
                    ],
                    [
                        49.88261,
                        40.401348
                    ],
                    [
                        49.88252,
                        40.401505
                    ],
                    [
                        49.882417,
                        40.401663
                    ],
                    [
                        49.882295,
                        40.401825
                    ],
                    [
                        49.882162,
                        40.401998
                    ],
                    [
                        49.88199,
                        40.40223
                    ],
                    [
                        49.881852,
                        40.402407
                    ],
                    [
                        49.881641,
                        40.40268
                    ],
                    [
                        49.881429,
                        40.402943
                    ],
                    [
                        49.88123,
                        40.403199
                    ],
                    [
                        49.881071,
                        40.403405
                    ],
                    [
                        49.880891,
                        40.403628
                    ],
                    [
                        49.880772,
                        40.403784
                    ],
                    [
                        49.880623,
                        40.403971
                    ],
                    [
                        49.880477,
                        40.404159
                    ],
                    [
                        49.880337,
                        40.404339
                    ],
                    [
                        49.880196,
                        40.404507
                    ],
                    [
                        49.880063,
                        40.404685
                    ],
                    [
                        49.879851,
                        40.404946
                    ],
                    [
                        49.879683,
                        40.405159
                    ],
                    [
                        49.879496,
                        40.405405
                    ],
                    [
                        49.879347,
                        40.405588
                    ],
                    [
                        49.879166,
                        40.405823
                    ],
                    [
                        49.878939,
                        40.406112
                    ],
                    [
                        49.878747,
                        40.406359
                    ],
                    [
                        49.878511,
                        40.406656
                    ],
                    [
                        49.878301,
                        40.406924
                    ],
                    [
                        49.878075,
                        40.407216
                    ],
                    [
                        49.877895,
                        40.407441
                    ],
                    [
                        49.877707,
                        40.407681
                    ],
                    [
                        49.877501,
                        40.407941
                    ],
                    [
                        49.87731,
                        40.408183
                    ],
                    [
                        49.877101,
                        40.408454
                    ],
                    [
                        49.876916,
                        40.408692
                    ],
                    [
                        49.876661,
                        40.409008
                    ],
                    [
                        49.876478,
                        40.409242
                    ],
                    [
                        49.876272,
                        40.409505
                    ],
                    [
                        49.876062,
                        40.409781
                    ],
                    [
                        49.875852,
                        40.410047
                    ],
                    [
                        49.875577,
                        40.410406
                    ],
                    [
                        49.875368,
                        40.410665
                    ],
                    [
                        49.875162,
                        40.410931
                    ],
                    [
                        49.874955,
                        40.41119
                    ],
                    [
                        49.874746,
                        40.411461
                    ],
                    [
                        49.874509,
                        40.411762
                    ],
                    [
                        49.874277,
                        40.41205
                    ],
                    [
                        49.874063,
                        40.412324
                    ],
                    [
                        49.87382,
                        40.412637
                    ],
                    [
                        49.873538,
                        40.412989
                    ],
                    [
                        49.873264,
                        40.413349
                    ],
                    [
                        49.872998,
                        40.41368
                    ],
                    [
                        49.872736,
                        40.414022
                    ],
                    [
                        49.872489,
                        40.414341
                    ],
                    [
                        49.872234,
                        40.414666
                    ],
                    [
                        49.871979,
                        40.414997
                    ],
                    [
                        49.871706,
                        40.415337
                    ],
                    [
                        49.871462,
                        40.415654
                    ],
                    [
                        49.871214,
                        40.415976
                    ],
                    [
                        49.870948,
                        40.416316
                    ],
                    [
                        49.870671,
                        40.416661
                    ],
                    [
                        49.870493,
                        40.416894
                    ],
                    [
                        49.870309,
                        40.417137
                    ],
                    [
                        49.870073,
                        40.417433
                    ],
                    [
                        49.869867,
                        40.417699
                    ],
                    [
                        49.869676,
                        40.417944
                    ],
                    [
                        49.869455,
                        40.418221
                    ],
                    [
                        49.869188,
                        40.418557
                    ],
                    [
                        49.868882,
                        40.41895
                    ],
                    [
                        49.86863,
                        40.419279
                    ],
                    [
                        49.868356,
                        40.419619
                    ],
                    [
                        49.868093,
                        40.419952
                    ],
                    [
                        49.867691,
                        40.420446
                    ],
                    [
                        49.867253,
                        40.421025
                    ],
                    [
                        49.866732,
                        40.421679
                    ],
                    [
                        49.866153,
                        40.422435
                    ],
                    [
                        49.865599,
                        40.423137
                    ],
                    [
                        49.865169,
                        40.423682
                    ],
                    [
                        49.864825,
                        40.424146
                    ],
                    [
                        49.86452,
                        40.424559
                    ],
                    [
                        49.864277,
                        40.424944
                    ],
                    [
                        49.864151,
                        40.425148
                    ],
                    [
                        49.864012,
                        40.42544
                    ],
                    [
                        49.863873,
                        40.425729
                    ],
                    [
                        49.863764,
                        40.42598
                    ],
                    [
                        49.863645,
                        40.426254
                    ],
                    [
                        49.863586,
                        40.426381
                    ],
                    [
                        49.86352,
                        40.42661
                    ],
                    [
                        49.863434,
                        40.426886
                    ],
                    [
                        49.863366,
                        40.427159
                    ],
                    [
                        49.863312,
                        40.427397
                    ],
                    [
                        49.863273,
                        40.427619
                    ],
                    [
                        49.86324,
                        40.427846
                    ],
                    [
                        49.863216,
                        40.428038
                    ],
                    [
                        49.863196,
                        40.428162
                    ],
                    [
                        49.863192,
                        40.428376
                    ],
                    [
                        49.863184,
                        40.428597
                    ],
                    [
                        49.863181,
                        40.428789
                    ],
                    [
                        49.863183,
                        40.428945
                    ],
                    [
                        49.863179,
                        40.42911
                    ],
                    [
                        49.863181,
                        40.429246
                    ],
                    [
                        49.863181,
                        40.429358
                    ],
                    [
                        49.863197,
                        40.429498
                    ],
                    [
                        49.863218,
                        40.429756
                    ],
                    [
                        49.863262,
                        40.430048
                    ],
                    [
                        49.863314,
                        40.430329
                    ],
                    [
                        49.863366,
                        40.430587
                    ],
                    [
                        49.863419,
                        40.430862
                    ],
                    [
                        49.863475,
                        40.431134
                    ],
                    [
                        49.863527,
                        40.431366
                    ],
                    [
                        49.863597,
                        40.431621
                    ],
                    [
                        49.863682,
                        40.431963
                    ],
                    [
                        49.863739,
                        40.432284
                    ],
                    [
                        49.863822,
                        40.432714
                    ],
                    [
                        49.863874,
                        40.432949
                    ],
                    [
                        49.863856,
                        40.43328
                    ],
                    [
                        49.863852,
                        40.433618
                    ],
                    [
                        49.863765,
                        40.434025
                    ],
                    [
                        49.863713,
                        40.434307
                    ],
                    [
                        49.863663,
                        40.434428
                    ],
                    [
                        49.863605,
                        40.434599
                    ],
                    [
                        49.863542,
                        40.434764
                    ],
                    [
                        49.863485,
                        40.434929
                    ],
                    [
                        49.863376,
                        40.43512
                    ],
                    [
                        49.863239,
                        40.435366
                    ],
                    [
                        49.863136,
                        40.435547
                    ],
                    [
                        49.863024,
                        40.435719
                    ],
                    [
                        49.862917,
                        40.435888
                    ],
                    [
                        49.862815,
                        40.436046
                    ],
                    [
                        49.862742,
                        40.436164
                    ],
                    [
                        49.862638,
                        40.436286
                    ],
                    [
                        49.862516,
                        40.436432
                    ],
                    [
                        49.862393,
                        40.436581
                    ],
                    [
                        49.862362,
                        40.436622
                    ],
                    [
                        49.862198,
                        40.436763
                    ],
                    [
                        49.862056,
                        40.436894
                    ],
                    [
                        49.861913,
                        40.437019
                    ],
                    [
                        49.86178,
                        40.437136
                    ],
                    [
                        49.861594,
                        40.437274
                    ],
                    [
                        49.86145,
                        40.437377
                    ],
                    [
                        49.861296,
                        40.437488
                    ],
                    [
                        49.861112,
                        40.437591
                    ],
                    [
                        49.8609,
                        40.437706
                    ],
                    [
                        49.860667,
                        40.437836
                    ],
                    [
                        49.86041,
                        40.437978
                    ],
                    [
                        49.860121,
                        40.438114
                    ],
                    [
                        49.859904,
                        40.438213
                    ],
                    [
                        49.859698,
                        40.438306
                    ],
                    [
                        49.859344,
                        40.438422
                    ],
                    [
                        49.859116,
                        40.438499
                    ],
                    [
                        49.858832,
                        40.438564
                    ],
                    [
                        49.858521,
                        40.438638
                    ],
                    [
                        49.858423,
                        40.438665
                    ],
                    [
                        49.858374,
                        40.43867
                    ],
                    [
                        49.858227,
                        40.438694
                    ],
                    [
                        49.857992,
                        40.438735
                    ],
                    [
                        49.857684,
                        40.438784
                    ],
                    [
                        49.857518,
                        40.438816
                    ],
                    [
                        49.857192,
                        40.438843
                    ],
                    [
                        49.85695,
                        40.438866
                    ],
                    [
                        49.856697,
                        40.438886
                    ],
                    [
                        49.85634,
                        40.438915
                    ],
                    [
                        49.855955,
                        40.438936
                    ],
                    [
                        49.855507,
                        40.438963
                    ],
                    [
                        49.855114,
                        40.438989
                    ],
                    [
                        49.854705,
                        40.439012
                    ],
                    [
                        49.854411,
                        40.439027
                    ],
                    [
                        49.854013,
                        40.43905
                    ],
                    [
                        49.85368,
                        40.439069
                    ],
                    [
                        49.853227,
                        40.439096
                    ],
                    [
                        49.852779,
                        40.439123
                    ],
                    [
                        49.852268,
                        40.43915
                    ],
                    [
                        49.851875,
                        40.439173
                    ],
                    [
                        49.851611,
                        40.439188
                    ],
                    [
                        49.851198,
                        40.439215
                    ],
                    [
                        49.85059,
                        40.439246
                    ],
                    [
                        49.850107,
                        40.439275
                    ],
                    [
                        49.84967,
                        40.439301
                    ],
                    [
                        49.849211,
                        40.439328
                    ],
                    [
                        49.84887,
                        40.439349
                    ],
                    [
                        49.848489,
                        40.439369
                    ],
                    [
                        49.848096,
                        40.43939
                    ],
                    [
                        49.847703,
                        40.439413
                    ],
                    [
                        49.847288,
                        40.439436
                    ],
                    [
                        49.846882,
                        40.439461
                    ],
                    [
                        49.846483,
                        40.439482
                    ],
                    [
                        49.846052,
                        40.439509
                    ],
                    [
                        49.845667,
                        40.439532
                    ],
                    [
                        49.845236,
                        40.439559
                    ],
                    [
                        49.844712,
                        40.439592
                    ],
                    [
                        49.84427,
                        40.439612
                    ],
                    [
                        49.843789,
                        40.439635
                    ],
                    [
                        49.843308,
                        40.439661
                    ],
                    [
                        49.842728,
                        40.439688
                    ],
                    [
                        49.842302,
                        40.439717
                    ],
                    [
                        49.84192,
                        40.439738
                    ],
                    [
                        49.841626,
                        40.439757
                    ],
                    [
                        49.841278,
                        40.439777
                    ],
                    [
                        49.84088,
                        40.439798
                    ],
                    [
                        49.840528,
                        40.439821
                    ],
                    [
                        49.840047,
                        40.439853
                    ],
                    [
                        49.839682,
                        40.439871
                    ],
                    [
                        49.839324,
                        40.439892
                    ],
                    [
                        49.839014,
                        40.439907
                    ],
                    [
                        49.838728,
                        40.439913
                    ],
                    [
                        49.838398,
                        40.439917
                    ],
                    [
                        49.838055,
                        40.439911
                    ],
                    [
                        49.837852,
                        40.439899
                    ],
                    [
                        49.837617,
                        40.439885
                    ],
                    [
                        49.837349,
                        40.439851
                    ],
                    [
                        49.836996,
                        40.439793
                    ],
                    [
                        49.836655,
                        40.439736
                    ],
                    [
                        49.836417,
                        40.439683
                    ],
                    [
                        49.836137,
                        40.439619
                    ],
                    [
                        49.835941,
                        40.439568
                    ],
                    [
                        49.835661,
                        40.439481
                    ],
                    [
                        49.835398,
                        40.439401
                    ],
                    [
                        49.835124,
                        40.439311
                    ],
                    [
                        49.834607,
                        40.439136
                    ],
                    [
                        49.833844,
                        40.438885
                    ],
                    [
                        49.8331,
                        40.438634
                    ],
                    [
                        49.83209,
                        40.438294
                    ],
                    [
                        49.831126,
                        40.437979
                    ],
                    [
                        49.83023,
                        40.437678
                    ],
                    [
                        49.829654,
                        40.437457
                    ],
                    [
                        49.828876,
                        40.437096
                    ],
                    [
                        49.828374,
                        40.436803
                    ],
                    [
                        49.827873,
                        40.436544
                    ],
                    [
                        49.82777,
                        40.436491
                    ],
                    [
                        49.827269,
                        40.436274
                    ],
                    [
                        49.826953,
                        40.43614
                    ],
                    [
                        49.826505,
                        40.435958
                    ],
                    [
                        49.826178,
                        40.435832
                    ],
                    [
                        49.825688,
                        40.435689
                    ],
                    [
                        49.82535,
                        40.435592
                    ],
                    [
                        49.824877,
                        40.435499
                    ],
                    [
                        49.824473,
                        40.435421
                    ],
                    [
                        49.823941,
                        40.43532
                    ],
                    [
                        49.823481,
                        40.435232
                    ],
                    [
                        49.822991,
                        40.435143
                    ],
                    [
                        49.822504,
                        40.435065
                    ],
                    [
                        49.82216,
                        40.435004
                    ],
                    [
                        49.821695,
                        40.434956
                    ],
                    [
                        49.821223,
                        40.434918
                    ],
                    [
                        49.820769,
                        40.434876
                    ],
                    [
                        49.82031,
                        40.434844
                    ],
                    [
                        49.819822,
                        40.434811
                    ],
                    [
                        49.81926,
                        40.434773
                    ],
                    [
                        49.818704,
                        40.43475
                    ],
                    [
                        49.818383,
                        40.434731
                    ],
                    [
                        49.817793,
                        40.434711
                    ],
                    [
                        49.817186,
                        40.434681
                    ],
                    [
                        49.816602,
                        40.434656
                    ],
                    [
                        49.816217,
                        40.43462
                    ],
                    [
                        49.815711,
                        40.434555
                    ],
                    [
                        49.815224,
                        40.434493
                    ],
                    [
                        49.814676,
                        40.4344
                    ],
                    [
                        49.81405,
                        40.434204
                    ],
                    [
                        49.813596,
                        40.434021
                    ],
                    [
                        49.813328,
                        40.43392
                    ],
                    [
                        49.812937,
                        40.433822
                    ],
                    [
                        49.812467,
                        40.433736
                    ],
                    [
                        49.812071,
                        40.433675
                    ],
                    [
                        49.811611,
                        40.43361
                    ],
                    [
                        49.811204,
                        40.433553
                    ],
                    [
                        49.810886,
                        40.433504
                    ],
                    [
                        49.810483,
                        40.433448
                    ],
                    [
                        49.810067,
                        40.433387
                    ],
                    [
                        49.809633,
                        40.433338
                    ],
                    [
                        49.80924,
                        40.433298
                    ],
                    [
                        49.808744,
                        40.433246
                    ],
                    [
                        49.807688,
                        40.433144
                    ],
                    [
                        49.807077,
                        40.433081
                    ],
                    [
                        49.806459,
                        40.433031
                    ],
                    [
                        49.805895,
                        40.432998
                    ],
                    [
                        49.805328,
                        40.432971
                    ],
                    [
                        49.804771,
                        40.432949
                    ],
                    [
                        49.804103,
                        40.432918
                    ],
                    [
                        49.803236,
                        40.432876
                    ],
                    [
                        49.802259,
                        40.432838
                    ],
                    [
                        49.802259,
                        40.43283
                    ]
                ]
            }
        }
    ]
}